*******************************************************************************
Ephemeris / WWW_USER Fri Mar  7 10:36:48 2025 Pasadena, USA      / Horizons    
*******************************************************************************
Target body name: (2017 SN16)                     {source: JPL#20}
Center body name: Earth (399)                     {source: DE441}
Center-site name: Mauna Kea
*******************************************************************************
Start time      : A.D. 2018-Aug-04 05:07:00.0000 UT      
Stop  time      : A.D. 2018-Aug-04 15:49:00.0000 UT      
Step-size       : 1 minutes
*******************************************************************************
Target pole/equ : undefined
Target radii    : undefined                                                    
Center geodetic : 204.5278, 19.8260847, 4.21024   {E-lon(deg),Lat(deg),Alt(km)}
Center cylindric: 204.5278, 6006.35451, 2151.0229 {E-lon(deg),Dxy(km),Dz(km)}
Center pole/equ : ITRF93                          {East-longitude positive}
Center radii    : 6378.137, 6378.137, 6356.752 km {Equator_a, b, pole_c}       
Target primary  : Sun
Vis. interferer : MOON (R_eq= 1737.400) km        {source: DE441}
Rel. light bend : Sun                             {source: DE441}
Rel. lght bnd GM: 1.3271E+11 km^3/s^2                                          
Small-body perts: Yes                             {source: SB441-N16}
Atmos refraction: NO (AIRLESS)
RA format       : HMS
Time format     : CAL 
Calendar mode   : Mixed Julian/Gregorian
RTS-only print  : NO       
EOP file        : eop.250306.p250602                                           
EOP coverage    : DATA-BASED 1962-JAN-20 TO 2025-MAR-06. PREDICTS-> 2025-JUN-01
Units conversion: 1 au= 149597870.700 km, c= 299792.458 km/s, 1 day= 86400.0 s 
Table cut-offs 1: Elevation (-90.0deg=NO ),Airmass (>38.000=NO), Daylight (YES)
Table cut-offs 2: Solar elongation (  0.0,180.0=NO ),Local Hour Angle( 0.0=NO )
Table cut-offs 3: RA/DEC angular rate (     0.0=NO )                           
*******************************************************************************
Initial IAU76/J2000 heliocentric ecliptic osculating elements (au, days, deg.):
  EPOCH=  2458305.5 ! 2018-Jul-06.00 (TDB)         Residual RMS= .23751        
   EC= .1454884975659386   QR= .8682464985612274   TP= 2458145.5722438502      
   OM= 2.759719470837934   W=  137.1017088998531   IN= 13.38264682844635       
  Equivalent ICRF heliocentric cartesian coordinates (au, au/d):
   X= 5.756755401261899E-01  Y=-7.953424559592890E-01  Z=-6.031561894536019E-01
  VX= 1.332076113263395E-02 VY= 5.454663564585547E-03 VZ= 3.896229736425836E-03
Asteroid physical parameters (km, seconds, rotational period in hours):        
   GM= n.a.                RAD= n.a.               ROTPER= n.a.                
   H= 23.34                G= .150                 B-V= n.a.                   
                           ALBEDO= n.a.            STYP= n.a.                  
*******************************************************************************
 Date__(UT)__HR:MN     R.A._________(ICRF)_________DEC
******************************************************
$$SOE
 2018-Aug-04 07:10     01 48 17.778176 -28 14 01.45070
 2018-Aug-04 07:11     01 48 17.804027 -28 14 01.32519
 2018-Aug-04 07:12     01 48 17.829843 -28 14 01.19982
 2018-Aug-04 07:13     01 48 17.855624 -28 14 01.07458
 2018-Aug-04 07:14     01 48 17.881368 -28 14 00.94948
 2018-Aug-04 07:15     01 48 17.907077 -28 14 00.82451
 2018-Aug-04 07:16     01 48 17.932749 -28 14 00.69967
 2018-Aug-04 07:17     01 48 17.958386 -28 14 00.57496
 2018-Aug-04 07:18     01 48 17.983986 -28 14 00.45037
 2018-Aug-04 07:19     01 48 18.009551 -28 14 00.32592
 2018-Aug-04 07:20     01 48 18.035079 -28 14 00.20159
 2018-Aug-04 07:21     01 48 18.060570 -28 14 00.07740
 2018-Aug-04 07:22     01 48 18.086025 -28 13 59.95332
 2018-Aug-04 07:23     01 48 18.111444 -28 13 59.82937
 2018-Aug-04 07:24     01 48 18.136826 -28 13 59.70555
 2018-Aug-04 07:25     01 48 18.162171 -28 13 59.58185
 2018-Aug-04 07:26     01 48 18.187479 -28 13 59.45827
 2018-Aug-04 07:27     01 48 18.212750 -28 13 59.33481
 2018-Aug-04 07:28     01 48 18.237985 -28 13 59.21147
 2018-Aug-04 07:29     01 48 18.263182 -28 13 59.08825
 2018-Aug-04 07:30     01 48 18.288342 -28 13 58.96515
 2018-Aug-04 07:31     01 48 18.313465 -28 13 58.84216
 2018-Aug-04 07:32     01 48 18.338551 -28 13 58.71929
 2018-Aug-04 07:33     01 48 18.363599 -28 13 58.59654
 2018-Aug-04 07:34     01 48 18.388609 -28 13 58.47390
 2018-Aug-04 07:35     01 48 18.413583 -28 13 58.35137
 2018-Aug-04 07:36     01 48 18.438518 -28 13 58.22896
 2018-Aug-04 07:37     01 48 18.463416 -28 13 58.10666
 2018-Aug-04 07:38     01 48 18.488276 -28 13 57.98446
 2018-Aug-04 07:39     01 48 18.513098 -28 13 57.86238
 2018-Aug-04 07:40     01 48 18.537882 -28 13 57.74041
 2018-Aug-04 07:41     01 48 18.562628 -28 13 57.61854
 2018-Aug-04 07:42     01 48 18.587336 -28 13 57.49678
 2018-Aug-04 07:43     01 48 18.612006 -28 13 57.37512
 2018-Aug-04 07:44     01 48 18.636637 -28 13 57.25357
 2018-Aug-04 07:45     01 48 18.661230 -28 13 57.13212
 2018-Aug-04 07:46     01 48 18.685785 -28 13 57.01078
 2018-Aug-04 07:47     01 48 18.710302 -28 13 56.88953
 2018-Aug-04 07:48     01 48 18.734779 -28 13 56.76839
 2018-Aug-04 07:49     01 48 18.759219 -28 13 56.64735
 2018-Aug-04 07:50     01 48 18.783619 -28 13 56.52640
 2018-Aug-04 07:51     01 48 18.807981 -28 13 56.40555
 2018-Aug-04 07:52     01 48 18.832304 -28 13 56.28480
 2018-Aug-04 07:53     01 48 18.856588 -28 13 56.16414
 2018-Aug-04 07:54     01 48 18.880833 -28 13 56.04358
 2018-Aug-04 07:55     01 48 18.905039 -28 13 55.92311
 2018-Aug-04 07:56     01 48 18.929206 -28 13 55.80273
 2018-Aug-04 07:57     01 48 18.953334 -28 13 55.68245
 2018-Aug-04 07:58     01 48 18.977423 -28 13 55.56225
 2018-Aug-04 07:59     01 48 19.001472 -28 13 55.44215
 2018-Aug-04 08:00     01 48 19.025483 -28 13 55.32213
 2018-Aug-04 08:01     01 48 19.049453 -28 13 55.20220
 2018-Aug-04 08:02     01 48 19.073385 -28 13 55.08236
 2018-Aug-04 08:03     01 48 19.097276 -28 13 54.96260
 2018-Aug-04 08:04     01 48 19.121129 -28 13 54.84292
 2018-Aug-04 08:05     01 48 19.144941 -28 13 54.72333
 2018-Aug-04 08:06     01 48 19.168714 -28 13 54.60382
 2018-Aug-04 08:07     01 48 19.192447 -28 13 54.48439
 2018-Aug-04 08:08     01 48 19.216141 -28 13 54.36505
 2018-Aug-04 08:09     01 48 19.239794 -28 13 54.24578
 2018-Aug-04 08:10     01 48 19.263408 -28 13 54.12659
 2018-Aug-04 08:11     01 48 19.286981 -28 13 54.00747
 2018-Aug-04 08:12     01 48 19.310515 -28 13 53.88843
 2018-Aug-04 08:13     01 48 19.334009 -28 13 53.76947
 2018-Aug-04 08:14     01 48 19.357462 -28 13 53.65058
 2018-Aug-04 08:15     01 48 19.380875 -28 13 53.53176
 2018-Aug-04 08:16     01 48 19.404248 -28 13 53.41302
 2018-Aug-04 08:17     01 48 19.427581 -28 13 53.29435
 2018-Aug-04 08:18     01 48 19.450874 -28 13 53.17574
 2018-Aug-04 08:19     01 48 19.474126 -28 13 53.05720
 2018-Aug-04 08:20     01 48 19.497337 -28 13 52.93874
 2018-Aug-04 08:21     01 48 19.520509 -28 13 52.82033
 2018-Aug-04 08:22     01 48 19.543639 -28 13 52.70200
 2018-Aug-04 08:23     01 48 19.566729 -28 13 52.58373
 2018-Aug-04 08:24     01 48 19.589779 -28 13 52.46552
 2018-Aug-04 08:25     01 48 19.612788 -28 13 52.34737
 2018-Aug-04 08:26     01 48 19.635756 -28 13 52.22929
 2018-Aug-04 08:27     01 48 19.658684 -28 13 52.11126
 2018-Aug-04 08:28     01 48 19.681570 -28 13 51.99330
 2018-Aug-04 08:29     01 48 19.704416 -28 13 51.87539
 2018-Aug-04 08:30     01 48 19.727221 -28 13 51.75754
 2018-Aug-04 08:31     01 48 19.749986 -28 13 51.63974
 2018-Aug-04 08:32     01 48 19.772709 -28 13 51.52200
 2018-Aug-04 08:33     01 48 19.795391 -28 13 51.40432
 2018-Aug-04 08:34     01 48 19.818033 -28 13 51.28668
 2018-Aug-04 08:35     01 48 19.840633 -28 13 51.16910
 2018-Aug-04 08:36     01 48 19.863192 -28 13 51.05157
 2018-Aug-04 08:37     01 48 19.885710 -28 13 50.93409
 2018-Aug-04 08:38     01 48 19.908187 -28 13 50.81665
 2018-Aug-04 08:39     01 48 19.930623 -28 13 50.69927
 2018-Aug-04 08:40     01 48 19.953017 -28 13 50.58193
 2018-Aug-04 08:41     01 48 19.975371 -28 13 50.46464
 2018-Aug-04 08:42     01 48 19.997683 -28 13 50.34739
 2018-Aug-04 08:43     01 48 20.019954 -28 13 50.23018
 2018-Aug-04 08:44     01 48 20.042183 -28 13 50.11301
 2018-Aug-04 08:45     01 48 20.064371 -28 13 49.99589
 2018-Aug-04 08:46     01 48 20.086518 -28 13 49.87881
 2018-Aug-04 08:47     01 48 20.108623 -28 13 49.76176
 2018-Aug-04 08:48     01 48 20.130687 -28 13 49.64475
 2018-Aug-04 08:49     01 48 20.152709 -28 13 49.52778
 2018-Aug-04 08:50     01 48 20.174690 -28 13 49.41085
 2018-Aug-04 08:51     01 48 20.196629 -28 13 49.29395
 2018-Aug-04 08:52     01 48 20.218527 -28 13 49.17708
 2018-Aug-04 08:53     01 48 20.240383 -28 13 49.06024
 2018-Aug-04 08:54     01 48 20.262198 -28 13 48.94344
 2018-Aug-04 08:55     01 48 20.283971 -28 13 48.82666
 2018-Aug-04 08:56     01 48 20.305703 -28 13 48.70992
 2018-Aug-04 08:57     01 48 20.327392 -28 13 48.59320
 2018-Aug-04 08:58     01 48 20.349040 -28 13 48.47651
 2018-Aug-04 08:59     01 48 20.370647 -28 13 48.35985
 2018-Aug-04 09:00     01 48 20.392212 -28 13 48.24321
 2018-Aug-04 09:01     01 48 20.413735 -28 13 48.12659
 2018-Aug-04 09:02     01 48 20.435216 -28 13 48.01000
 2018-Aug-04 09:03     01 48 20.456656 -28 13 47.89343
 2018-Aug-04 09:04     01 48 20.478053 -28 13 47.77688
 2018-Aug-04 09:05     01 48 20.499409 -28 13 47.66034
 2018-Aug-04 09:06     01 48 20.520724 -28 13 47.54383
 2018-Aug-04 09:07     01 48 20.541996 -28 13 47.42733
 2018-Aug-04 09:08     01 48 20.563227 -28 13 47.31085
 2018-Aug-04 09:09     01 48 20.584415 -28 13 47.19439
 2018-Aug-04 09:10     01 48 20.605562 -28 13 47.07794
 2018-Aug-04 09:11     01 48 20.626667 -28 13 46.96150
 2018-Aug-04 09:12     01 48 20.647731 -28 13 46.84507
